[{"id":"20580","name":"HST","tle1":"1 20580U 90037B   26175.96652655  .00007148  00000+0  22544-3 0  9998","tle2":"2 20580  28.4728  27.4055 0001442 233.5980 126.4483 15.30829347789769"},{"id":"23802","name":"POLAR","tle1":"1 23802U 96013A   26175.73936193  .00000126  00000+0  00000+0 0  9993","tle2":"2 23802  79.8637 226.9637 6477919 208.8194  90.3421  1.29846106144956"},{"id":"25560","name":"SWAS","tle1":"1 25560U 98071A   26176.23189249  .00002661  00000+0  17134-3 0  9996","tle2":"2 25560  69.8945 206.7723 0008781 251.6703 108.3506 15.09661144498489"},{"id":"25867","name":"CXO","tle1":"1 25867U 99040B   26177.31113606  .00000484  00000+0  00000+0 0  9998","tle2":"2 25867  56.2784 116.4107 7818645 310.1913   0.3296  0.37800874 17352"},{"id":"25989","name":"XMM-NEWTON","tle1":"1 25989U 99066A   26177.32484747  .00000006  00000+0  00000+0 0  9999","tle2":"2 25989  64.4359 282.8679 4671049  64.7288   0.1080  0.50127949 23049"},{"id":"25994","name":"TERRA","tle1":"1 25994U 99068A   26176.23172887  .00000366  00000+0  83493-4 0  9996","tle2":"2 25994  97.9452 225.4590 0002218 165.9563 235.9013 14.61108926410783"},{"id":"26410","name":"CLUSTER II-FM7 (SAMBA)","tle1":"1 26410U 00041A   26177.06472445  .00005882  00000+0  00000+0 0  9994","tle2":"2 26410 149.9012  52.3742 9061812 269.6784 359.6419  0.44870397 20352"},{"id":"26464","name":"CLUSTER II-FM8 (TANGO)","tle1":"1 26464U 00045B   26172.94229412  .00004849  00000+0  00000+0 0  9995","tle2":"2 26464 150.1352  52.7746 9062813 269.8657   2.6673  0.44420336 20332"},{"id":"26702","name":"ODIN","tle1":"1 26702U 01007A   26176.08925060  .00262742  00000+0  14705-2 0  9998","tle2":"2 26702  97.3797 217.5522 0006631 132.9735 227.2089 15.78592061390647"},{"id":"26998","name":"TIMED","tle1":"1 26998U 01055B   26176.23744369  .00000910  00000+0  86127-4 0  9992","tle2":"2 26998  74.0664 218.8094 0001535 324.6216  35.4867 14.95307971332022"},{"id":"27640","name":"CORIOLIS","tle1":"1 27640U 03001A   26176.30065910  .00000097  00000+0  65985-4 0  9991","tle2":"2 27640  98.7126 183.0615 0013846 184.7389 175.3659 14.19946883215377"},{"id":"27651","name":"SORCE","tle1":"1 27651U 03004A   26175.84347698  .00002062  00000+0  15819-3 0  9994","tle2":"2 27651  39.9897 217.9946 0016254 108.0983 252.1583 15.03744571273053"},{"id":"27843","name":"MOST","tle1":"1 27843U 03031D   26176.23651311  .00000072  00000+0  53062-4 0  9993","tle2":"2 27843  98.7044 183.8501 0008997 224.4186 135.6270 14.21324018191858"},{"id":"27858","name":"SCISAT 1","tle1":"1 27858U 03036A   26176.19411699  .00000594  00000+0  80508-4 0  9996","tle2":"2 27858  73.9288 155.4341 0008297 225.7509 134.2988 14.81455644232631"},{"id":"28485","name":"SWIFT","tle1":"1 28485U 04047A   26175.94522574  .00057656  00000+0  46641-3 0  9993","tle2":"2 28485  20.5513 125.0243 0001465  47.4003 312.6566 15.69013211188089"},{"id":"29479","name":"HINODE (SOLAR-B)","tle1":"1 29479U 06041A   26176.29304008  .00000673  00000+0  12401-3 0  9996","tle2":"2 29479  98.0544 192.3261 0015957 261.6800  98.2596 14.68632960 56068"},{"id":"29505","name":"SHIJIAN-6 02A (SJ-6 02A)","tle1":"1 29505U 06046A   26176.27090498  .00006558  00000+0  33504-3 0  9999","tle2":"2 29505  97.6360 217.3985 0004756 107.5899 252.5853 15.17023239 73496"},{"id":"29506","name":"SHIJIAN-6 02B (SJ-6 02B)","tle1":"1 29506U 06046B   26176.34393090  .00001183  00000+0  96290-4 0  9993","tle2":"2 29506  97.7163 205.3527 0015382  37.4768 322.7526 15.01394382 71961"},{"id":"33053","name":"FGRST (GLAST)","tle1":"1 33053U 08029A   26176.28235954  .00002593  00000+0  90541-4 0  9994","tle2":"2 33053  25.5803 148.2689 0008378  63.4477 296.6919 15.23976818997078"},{"id":"36395","name":"SDO","tle1":"1 36395U 10005A   26176.31816297 -.00000093  00000+0  00000+0 0  9992","tle2":"2 36395  34.6685  86.2181 0001679  50.5603 149.0403  1.00270663 60145"},{"id":"36508","name":"CRYOSAT 2","tle1":"1 36508U 10013A   26176.28300254  .00000123  00000+0  29931-4 0  9996","tle2":"2 36508  92.0359 279.2694 0002125  93.7749 266.3701 14.51901761859259"},{"id":"37389","name":"X-SAT","tle1":"1 37389U 11015C   26176.22892855 -.00000094  00000+0 -22328-4 0  9996","tle2":"2 37389  98.3512 152.8691 0013380 324.3684  35.6602 14.25207778788825"},{"id":"38337","name":"GCOM-W1 (SHIZUKU)","tle1":"1 38337U 12025A   26175.60764462  .00000366  00000+0  91332-4 0  9996","tle2":"2 38337  98.2021 116.0510 0001680  70.7715 102.0094 14.57130469750114"},{"id":"38358","name":"NUSTAR","tle1":"1 38358U 12031A   26176.25002315  .00005328  00000+0  27509-3 0  9997","tle2":"2 38358   6.0286 333.6716 0008853 235.4807 208.5040 15.08874694  1308"},{"id":"39089","name":"NEOSSAT","tle1":"1 39089U 13009D   26176.22346028  .00000149  00000+0  66319-4 0  9993","tle2":"2 39089  98.4181 356.0650 0010231 217.5625 142.4848 14.35829062697892"},{"id":"39091","name":"BRITE-AUSTRIA","tle1":"1 39091U 13009F   26176.28774049  .00000165  00000+0  70845-4 0  9997","tle2":"2 39091  98.3998 355.5230 0009532 210.0764 149.9877 14.36545008698219"},{"id":"39197","name":"IRIS","tle1":"1 39197U 13033A   26176.11108763  .00000984  00000+0  11878-3 0  9996","tle2":"2 39197  97.9328  15.3633 0023076 294.6296  65.2515 14.85899429701557"},{"id":"39253","name":"HISAKI (SPRINT-A)","tle1":"1 39253U 13049A   26176.30404958  .00000116  00000+0  72023-4 0  9999","tle2":"2 39253  29.7171 178.7431 0136855  82.6588 278.9515 13.55545419632524"},{"id":"39265","name":"CASSIOPE","tle1":"1 39265U 13055A   26176.22952395  .00053426 -25996-6  57976-3 0  9993","tle2":"2 39265  80.9142  56.9506 0289784  35.4281 326.5820 15.25915569668894"},{"id":"39422","name":"STSAT-3","tle1":"1 39422U 13066G   26176.23616789  .00003358  00000+0  25512-3 0  9996","tle2":"2 39422  97.6218 145.9948 0010533  22.9689 337.2005 15.02797579685419"}]